{
  "type": "FeatureCollection",
  "features": [
    {
      "type": "Feature",
      "properties": {
        "norad_id": 30405,
        "name": "FENGYUN 1C DEB",
        "group": "fengyun-1c-debris",
        "lat": 45.00418574684841,
        "lon": 77.57917724501606,
        "alt_km": 792.2436520014799,
        "timestamp": "2025-12-18T10:51:26.082929+00:00",
        "meta_object_name": "FENGYUN 1C DEB",
        "meta_object_id": "1999-025ADU",
        "meta_epoch": "2025-12-17T12:52:17.970240",
        "meta_mean_motion": 14.28957862,
        "meta_eccentricity": 0.00512399,
        "meta_inclination": 98.7942,
        "meta_ra_of_asc_node": 85.5623,
        "meta_arg_of_pericenter": 140.2053,
        "meta_mean_anomaly": 236.3383,
        "meta_ephemeris_type": 0,
        "meta_classification_type": "U",
        "meta_norad_cat_id": 30405,
        "meta_element_set_no": 999,
        "meta_rev_at_epoch": 97464,
        "meta_bstar": 0.0013150553,
        "meta_mean_motion_dot": 3.328e-05,
        "meta_mean_motion_ddot": 0,
        "tle_line1": "1 30405U 99025ADU 25351.53631910  .00003328  00000+0  13151-2 0  9999",
        "tle_line2": "2 30405  98.7942  85.5623 0051239 140.2053 236.3383 14.28957862974647"
      },
      "geometry": {
        "type": "Point",
        "coordinates": [
          77.57917724501606,
          45.00418574684841
        ]
      }
    },
    {
      "type": "Feature",
      "properties": {
        "norad_id": 30406,
        "name": "FENGYUN 1C DEB",
        "group": "fengyun-1c-debris",
        "lat": 17.67727410718759,
        "lon": -120.33327527319695,
        "alt_km": 860.7700764389501,
        "timestamp": "2025-12-18T10:51:26.082974+00:00",
        "meta_object_name": "FENGYUN 1C DEB",
        "meta_object_id": "1999-025ADV",
        "meta_epoch": "2025-12-17T15:28:50.229120",
        "meta_mean_motion": 13.59232475,
        "meta_eccentricity": 0.02831659,
        "meta_inclination": 98.621,
        "meta_ra_of_asc_node": 241.7266,
        "meta_arg_of_pericenter": 347.159,
        "meta_mean_anomaly": 40.6049,
        "meta_ephemeris_type": 0,
        "meta_classification_type": "U",
        "meta_norad_cat_id": 30406,
        "meta_element_set_no": 999,
        "meta_rev_at_epoch": 93233,
        "meta_bstar": 0.0017697121,
        "meta_mean_motion_dot": 1.659e-05,
        "meta_mean_motion_ddot": 0,
        "tle_line1": "1 30406U 99025ADV 25351.64502580  .00001659  00000+0  17697-2 0  9996",
        "tle_line2": "2 30406  98.6210 241.7266 0283165 347.1590  40.6049 13.59232475932337"
      },
      "geometry": {
        "type": "Point",
        "coordinates": [
          -120.33327527319695,
          17.67727410718759
        ]
      }
    },
    {
      "type": "Feature",
      "properties": {
        "norad_id": 30409,
        "name": "FENGYUN 1C DEB",
        "group": "fengyun-1c-debris",
        "lat": -48.148120085146815,
        "lon": -10.967732749035743,
        "alt_km": 791.2159848432166,
        "timestamp": "2025-12-18T10:51:26.082986+00:00",
        "meta_object_name": "FENGYUN 1C DEB",
        "meta_object_id": "1999-025ADY",
        "meta_epoch": "2025-12-17T11:43:21.699840",
        "meta_mean_motion": 14.03750004,
        "meta_eccentricity": 0.01677244,
        "meta_inclination": 98.4728,
        "meta_ra_of_asc_node": 338.5541,
        "meta_arg_of_pericenter": 352.1908,
        "meta_mean_anomaly": 131.6603,
        "meta_ephemeris_type": 0,
        "meta_classification_type": "U",
        "meta_norad_cat_id": 30409,
        "meta_element_set_no": 999,
        "meta_rev_at_epoch": 96496,
        "meta_bstar": 0.0008135221,
        "meta_mean_motion_dot": 1.41e-05,
        "meta_mean_motion_ddot": 0,
        "tle_line1": "1 30409U 99025ADY 25351.48844560  .00001410  00000+0  81352-3 0  9993",
        "tle_line2": "2 30409  98.4728 338.5541 0167724 352.1908 131.6603 14.03750004964968"
      },
      "geometry": {
        "type": "Point",
        "coordinates": [
          -10.967732749035743,
          -48.148120085146815
        ]
      }
    },
    {
      "type": "Feature",
      "properties": {
        "norad_id": 30411,
        "name": "FENGYUN 1C DEB",
        "group": "fengyun-1c-debris",
        "lat": -76.09234244200043,
        "lon": 45.20833301148482,
        "alt_km": 961.9788564308838,
        "timestamp": "2025-12-18T10:51:26.082997+00:00",
        "meta_object_name": "FENGYUN 1C DEB",
        "meta_object_id": "1999-025AEA",
        "meta_epoch": "2025-12-17T16:34:46.741728",
        "meta_mean_motion": 14.07674164,
        "meta_eccentricity": 0.01230798,
        "meta_inclination": 98.5809,
        "meta_ra_of_asc_node": 262.0576,
        "meta_arg_of_pericenter": 92.6924,
        "meta_mean_anomaly": 268.8341,
        "meta_ephemeris_type": 0,
        "meta_classification_type": "U",
        "meta_norad_cat_id": 30411,
        "meta_element_set_no": 999,
        "meta_rev_at_epoch": 96053,
        "meta_bstar": 0.0015363499,
        "meta_mean_motion_dot": 2.743e-05,
        "meta_mean_motion_ddot": 0,
        "tle_line1": "1 30411U 99025AEA 25351.69081877  .00002743  00000+0  15363-2 0  9991",
        "tle_line2": "2 30411  98.5809 262.0576 0123079  92.6924 268.8341 14.07674164960537"
      },
      "geometry": {
        "type": "Point",
        "coordinates": [
          45.20833301148482,
          -76.09234244200043
        ]
      }
    },
    {
      "type": "Feature",
      "properties": {
        "norad_id": 30413,
        "name": "FENGYUN 1C DEB",
        "group": "fengyun-1c-debris",
        "lat": 76.99193877554488,
        "lon": 159.78714824396346,
        "alt_km": 789.866365976628,
        "timestamp": "2025-12-18T10:51:26.083008+00:00",
        "meta_object_name": "FENGYUN 1C DEB",
        "meta_object_id": "1999-025AEC",
        "meta_epoch": "2025-12-17T14:36:21.959136",
        "meta_mean_motion": 14.32587325,
        "meta_eccentricity": 0.00448198,
        "meta_inclination": 102.0629,
        "meta_ra_of_asc_node": 226.3849,
        "meta_arg_of_pericenter": 203.7895,
        "meta_mean_anomaly": 212.2441,
        "meta_ephemeris_type": 0,
        "meta_classification_type": "U",
        "meta_norad_cat_id": 30413,
        "meta_element_set_no": 999,
        "meta_rev_at_epoch": 97209,
        "meta_bstar": 0.0016146979,
        "meta_mean_motion_dot": 4.361e-05,
        "meta_mean_motion_ddot": 0,
        "tle_line1": "1 30413U 99025AEC 25351.60858749  .00004361  00000+0  16147-2 0  9993",
        "tle_line2": "2 30413 102.0629 226.3849 0044819 203.7895 212.2441 14.32587325972090"
      },
      "geometry": {
        "type": "Point",
        "coordinates": [
          159.78714824396346,
          76.99193877554488
        ]
      }
    },
    {
      "type": "Feature",
      "properties": {
        "norad_id": 30414,
        "name": "FENGYUN 1C DEB",
        "group": "fengyun-1c-debris",
        "lat": -25.416672482504215,
        "lon": -34.36978799096508,
        "alt_km": 748.2948536278109,
        "timestamp": "2025-12-18T10:51:26.083019+00:00",
        "meta_object_name": "FENGYUN 1C DEB",
        "meta_object_id": "1999-025AED",
        "meta_epoch": "2025-12-17T10:27:46.174176",
        "meta_mean_motion": 14.34222597,
        "meta_eccentricity": 0.00582368,
        "meta_inclination": 99.0798,
        "meta_ra_of_asc_node": 148.9214,
        "meta_arg_of_pericenter": 175.2601,
        "meta_mean_anomaly": 184.9146,
        "meta_ephemeris_type": 0,
        "meta_classification_type": "U",
        "meta_norad_cat_id": 30414,
        "meta_element_set_no": 999,
        "meta_rev_at_epoch": 97154,
        "meta_bstar": 0.001953946,
        "meta_mean_motion_dot": 5.541e-05,
        "meta_mean_motion_ddot": 0,
        "tle_line1": "1 30414U 99025AED 25351.43595109  .00005541  00000+0  19539-2 0  9992",
        "tle_line2": "2 30414  99.0798 148.9214 0058236 175.2601 184.9146 14.34222597971549"
      },
      "geometry": {
        "type": "Point",
        "coordinates": [
          -34.36978799096508,
          -25.416672482504215
        ]
      }
    },
    {
      "type": "Feature",
      "properties": {
        "norad_id": 30415,
        "name": "FENGYUN 1C DEB",
        "group": "fengyun-1c-debris",
        "lat": 30.076774796197245,
        "lon": 47.054369986164346,
        "alt_km": 1126.7680324158919,
        "timestamp": "2025-12-18T10:51:26.083029+00:00",
        "meta_object_name": "FENGYUN 1C DEB",
        "meta_object_id": "1999-025AEE",
        "meta_epoch": "2025-12-17T17:47:54.403296",
        "meta_mean_motion": 13.68949692,
        "meta_eccentricity": 0.02394125,
        "meta_inclination": 99.6459,
        "meta_ra_of_asc_node": 51.9952,
        "meta_arg_of_pericenter": 256.4516,
        "meta_mean_anomaly": 231.195,
        "meta_ephemeris_type": 0,
        "meta_classification_type": "U",
        "meta_norad_cat_id": 30415,
        "meta_element_set_no": 999,
        "meta_rev_at_epoch": 93946,
        "meta_bstar": 0.0012069784,
        "meta_mean_motion_dot": 1.226e-05,
        "meta_mean_motion_ddot": 0,
        "tle_line1": "1 30415U 99025AEE 25351.74160189  .00001226  00000+0  12070-2 0  9992",
        "tle_line2": "2 30415  99.6459  51.9952 0239412 256.4516 231.1950 13.68949692939467"
      },
      "geometry": {
        "type": "Point",
        "coordinates": [
          47.054369986164346,
          30.076774796197245
        ]
      }
    }
  ]
}